#dP2023 11 10  6  0  0.00000000      96 __u+U IGS20 EXT  IAC
## 2287 453600.00000000   900.00000000 60258 0.2500000000000
+  117   C06C07C08C09C10C11C12C13C14C16C19C20C21C22C23C24C25
+        C26C27C28C29C30C32C33C34C35C36C37C38C39C40C41C42C43
+        C44C45C46E02E03E04E07E08E09E10E11E12E13E15E19E21E24
+        E25E26E27E30E31E33E34E36G01G02G03G04G05G06G07G08G09
+        G10G11G12G13G14G15G16G17G18G19G20G21G22G23G24G25G26
+        G27G28G29G30G31G32J02J03J04R01R02R03R04R05R07R08R09
+        R11R12R13R14R15R16R17R18R19R20R21R22R24R25R26  0  0
++         8 10  8  9 10  8  8  9  9  9  8  7  9  8  8  7  9
++         9 10  7 10  8  9  9  7  9  7  9 10  9 10  7  0  8
++         8  9 10  8  7  7  7  7  7  8  9  8  7  8  7  9  7
++         8  7  9  9  8  7  8  8  8  8  8  8  7  0  6  7  7
++         7  7  7  8  7  7  8  8  7  6  6  8  8  7  7  7  7
++         7  7  7  8  7  7 10 10 10  8  8  8  8  8  8  7  8
++         8 10  8  9 10 10  9  8  8 10  7  7  7  8  9  0  0
%c M  cc GPS ccc cccc cccc cccc cccc ccccc ccccc ccccc ccccc
%c cc cc ccc ccc cccc cccc cccc cccc ccccc ccccc ccccc ccccc
%f  0.0000000  0.000000000  0.00000000000  0.000000000000000
%f  0.0000000  0.000000000  0.00000000000  0.000000000000000
%i    0    0    0    0      0      0      0      0         0
%i    0    0    0    0      0      0      0      0         0
/* IAC                                ULTRA-RAPID PREDICTION
/* S/V CLOCKS ARE ALIGNED TO GNSS TIME                      
/* G:C1WC2W R:C1PC2P E:C1XC5X C:C2IC6I J:C1CC2S             
/* PCV:IGS20_2280 OL/AL:FES2004  NONE     YN ORB:CoN CLK:CoN
*  2023 11 11  1 15  0.00000000
PC06 -11085.767823  40773.257484   2303.360895     17.477489
PC07  -4877.115341  28576.890206 -30488.501844   -298.927962
PC08 -18129.961034  23743.975419  29652.880123    247.540334
PC09  -6787.269695  41385.322026  -6350.482409    -73.128159
PC10   4216.988451  31331.120813 -27343.942695    -12.644404
PC11  12173.528599  18156.320453  17410.061767    249.632579
PC12   1859.730846  27826.771328    835.296888    863.677110
PC13 -10867.666202  25009.556720  32218.668563    380.805804
PC14  22914.215934  15020.566203   5165.717691    759.563035
PC16 -13573.850955  39606.184657   6533.905837   -169.321395
PC19 -25931.594721  -9448.766565   4195.788378   -971.946519
PC20 -17672.462194 -17819.378760 -12223.562515    127.571754
PC21  -2129.991364  16100.738642  22697.064152   -969.287050
PC22 -19756.577999   4787.046336  19115.329808   -230.230376
PC23  24318.077103 -13192.447731  -3694.993034   -824.178924
PC24   5506.492412  15759.574287 -22375.141365    584.016126
PC25  21412.916864    588.393877 -17909.929232    252.868999
PC26 -12075.188906  20902.052412 -13987.775821   -204.439514
PC27   3665.549918 -26614.102795   7522.240853    226.319534
PC28  13029.878375 -14643.040739  19874.172611    170.720941
PC29 -15929.631145  -8043.399398 -21455.600702    199.704018
PC30  -8759.788927 -24946.049705  -8904.049678     -8.105554
PC32   2116.649264 -16082.598237 -22700.647263   -534.100131
PC33  25969.623104   9358.217145  -4066.309737   -945.837844
PC34   9565.416802  24167.426074  10174.211296    300.675542
PC35 -12488.424604  15262.707678 -19763.925416    505.639136
PC36 -20890.464956  -1861.131524  18420.518970   -139.874725
PC37  13229.245900 -20607.958358  13416.364544   -882.286704
PC38 -24669.899803  25263.857139  22946.066852    116.913206
PC39 -13631.222522  38484.262154  11086.996926     -5.615171
PC40  -8296.976742  23169.959274 -34174.493295    -43.512659
PC41  20282.665611  -4302.952416 -18630.063487   -871.356332
PC42  16370.483646  18127.736381  13513.927571   -501.920719
PC43  15899.524008   9077.089471  21060.154085     47.732961
PC44  -2839.225694  26691.586993  -7691.831044    289.003924
PC45 -24186.804048  13523.787487   3158.423579    -44.909235
PC46  -6496.288973 -15040.797169  22586.601682    -98.791485
PE02  24414.676565   9251.585467 -13969.388359     77.405608
PE03  20254.619112  18613.296666 -10931.750037    -72.658258
PE04 -18598.600519    464.012584  23020.535573   -254.663451
PE07   6315.520080 -19036.026583 -21774.169063    -87.139168
PE08  18702.697870    169.899469 -22948.543718   -175.107358
PE09  -6302.875938  18858.168490  21917.854445   -223.281861
PE10 -19058.091344  19545.269436 -11427.992486   -577.925955
PE11 -14972.674726  25507.762411  -1227.089233   3192.734315
PE12 -20000.060344  11181.149850 -18741.584003   -771.983632
PE13  15315.293711 -25255.811604   1962.521073    -19.603800
PE15  19900.229979 -10735.606837  19113.696718    -68.376642
PE19 -19433.647976 -20518.657366   8791.975552  -1240.612999
PE21  -6422.452417 -16301.849553  23857.252249   -563.544789
PE24 -16667.792894  14065.953363 -20013.049366   -424.837917
PE25   6008.282315  16354.841383 -23924.110889     -3.570388
PE26   1230.926232 -24535.221162 -16511.165750    277.331235
PE27  16159.557740 -14252.366250  20305.236449   -196.810885
PE30  29056.329142  -3510.129625   4484.321652   -652.112292
PE31 -28947.617761   3823.765923  -4822.486560     -9.812378
PE33 -12384.979198 -10464.900906 -24758.100294      2.098151
PE34  12799.040325   9814.674477  24819.513275    -77.271280
PE36  -1835.190580  24784.454666  16086.197441   -142.318142
PG01  14675.013636 -21706.229530   2658.143001    163.193616
PG02  16123.549344 -18636.280765  10148.403078   -530.590304
PG03  15729.106716 -12089.035434 -17751.014292    -22.404508
PG04   5737.798008 -17304.863733 -19260.899129    209.471937
PG05 -25158.157556   5861.266133   6206.932021   -149.911647
PG06 -11627.873976  -8888.184570 -22091.027871    509.149139
PG07   2296.137147 -23089.771968  12952.836351     16.701447
PG08  12414.092951  -8933.919390  21625.932863   -151.501951
PG09  -4133.447248 -23080.768916 -12512.209531     -6.601697
PG10  17396.468251  11128.880867  17077.710542    -60.893292
PG11 -17781.739844   3141.519179 -19438.273316   -454.745141
PG12 -17920.141633  10644.043033 -16697.834884   -445.653944
PG13 -16253.926489  -1904.786479  20762.304492    593.925413
PG14 -13722.894578 -13423.630385  18450.708607    239.732392
PG15 -10856.708805  11258.854577  20967.545468     95.906231
PG16  26748.860127   1123.637370   1131.446940   -424.220615
PG17 -12784.109759 -23153.209394  -1028.600349    723.367054
PG18  -1910.432019  22338.961673  14105.817733   -475.522401
PG19 -16350.995560 -18585.623378 -10277.372040    397.216359
PG20 -25673.800736    274.210137  -6360.858736    402.263974
PG21  16899.058497 -15477.196298  13090.801776    144.590198
PG22 -19321.246645 -11472.518788  14381.314526     86.200232
PG23   4123.335569  14586.907310  21837.361795     96.875093
PG24 -15129.554763  19940.785939   7822.908849   -368.287634
PG25  -4472.578773  15414.275942 -21449.957183    476.839163
PG26  24894.716129   4363.514040  -8875.092350    217.490732
PG27  18211.584824   5319.125981  18499.541032    -68.200529
PG28  11202.004664  10975.756645 -21462.116663    -43.474239
PG29   1882.559699  23183.617556 -12771.277365   -610.227398
PG30  -6241.398728 -17487.198712  19018.987719   -469.554998
PG31  16292.034170   1851.691976 -21165.929110   -225.618957
PG32  16354.907498  20509.303246  -4637.393075   -584.226920
PJ02 -31719.186156  16214.547665 -17877.514756     -0.137423
PJ03 -22827.820669  31971.432971 -10700.283231     -7.826569
PJ04 -27152.483610  26021.706988  25013.322884     72.212482
PR01  14463.337210  17134.991035  12151.577141     69.557170
PR02  21368.567321  12877.114013  -5457.528549    -22.345501
PR03  16339.408907    600.263942 -19563.395970     88.800811
PR04   2327.872470 -11416.850770 -22666.049463    210.562636
PR05 -12760.427757 -17473.600690 -13478.892965    122.030409
PR07 -15711.298029    159.015893  20108.599500     68.839342
PR08  -2103.076088  11693.558517  22629.428424    -73.235524
PR09 -19066.593072   -292.498469  17002.258608    152.539916
PR11 -15820.007150  14403.850034 -13892.195088   -212.274476
PR12   3027.671348  10678.703034 -22942.651509     33.290911
PR13  17448.293934   1795.124414 -18537.479530    -41.164981
PR14  23485.224510  -9811.872064  -1536.237708     25.533693
PR15  14758.632993 -14426.323467  15006.234511     84.847986
PR16  -2738.325883 -10660.602082  23017.336432     20.503678
PR17  10717.063072 -10721.318497  20543.894460     33.777465
PR18   6703.958293 -23219.873119   8113.572660    111.335620
PR19    714.301024 -24492.702287  -7103.505867   -254.191111
PR20  -8344.639772  -9765.541915 -22016.320809   -103.291958
PR21 -10645.954209  11302.356062 -20220.098313    -52.455167
PR22  -7117.378381  23469.528344  -6998.259017     92.933219
PR24   9350.207289   8881.148377  22027.395677    -31.675737
PR25 -11424.278349  10167.556933 -20397.552110     -6.113991
PR26  -2624.487810  11315.770812  22722.351850    -17.220343
EOF
